{
  "type": "FeatureCollection",
  "features": [
    {
      "type": "Feature",
      "properties": {
        "norad_id": 34754,
        "name": "COSMOS 2251 DEB",
        "group": "cosmos-2251-debris",
        "lat": 17.487298554892096,
        "lon": 17.23212071766036,
        "alt_km": 776.2342325450181,
        "timestamp": "2025-12-26T08:37:54.974721+00:00",
        "meta_object_name": "COSMOS 2251 DEB",
        "meta_object_id": "1993-036ZY",
        "meta_epoch": "2025-12-26T00:15:18.741312",
        "meta_mean_motion": 14.40499121,
        "meta_eccentricity": 0.0030033,
        "meta_inclination": 74.0288,
        "meta_ra_of_asc_node": 203.0543,
        "meta_arg_of_pericenter": 316.6851,
        "meta_mean_anomaly": 195.8731,
        "meta_ephemeris_type": 0,
        "meta_classification_type": "U",
        "meta_norad_cat_id": 34754,
        "meta_element_set_no": 999,
        "meta_rev_at_epoch": 88324,
        "meta_bstar": 0.00019034,
        "meta_mean_motion_dot": 5.82e-06,
        "meta_mean_motion_ddot": 0,
        "tle_line1": "1 34754U 93036ZY  25360.01063358  .00000582  00000+0  19034-3 0  9990",
        "tle_line2": "2 34754  74.0288 203.0543 0030033 316.6851 195.8731 14.40499121883244"
      },
      "geometry": {
        "type": "Point",
        "coordinates": [
          17.23212071766036,
          17.487298554892096
        ]
      }
    },
    {
      "type": "Feature",
      "properties": {
        "norad_id": 34755,
        "name": "COSMOS 2251 DEB",
        "group": "cosmos-2251-debris",
        "lat": -0.8235476092732809,
        "lon": 88.37116835521871,
        "alt_km": 1138.7055163301966,
        "timestamp": "2025-12-26T08:37:54.974731+00:00",
        "meta_object_name": "COSMOS 2251 DEB",
        "meta_object_id": "1993-036ZZ",
        "meta_epoch": "2025-12-25T10:58:37.231104",
        "meta_mean_motion": 13.50579623,
        "meta_eccentricity": 0.0407887,
        "meta_inclination": 73.9257,
        "meta_ra_of_asc_node": 269.5833,
        "meta_arg_of_pericenter": 287.1758,
        "meta_mean_anomaly": 192.7333,
        "meta_ephemeris_type": 0,
        "meta_classification_type": "U",
        "meta_norad_cat_id": 34755,
        "meta_element_set_no": 999,
        "meta_rev_at_epoch": 82695,
        "meta_bstar": 0.00071737,
        "meta_mean_motion_dot": 7.49e-06,
        "meta_mean_motion_ddot": 0,
        "tle_line1": "1 34755U 93036ZZ  25359.45737536  .00000749  00000+0  71737-3 0  9996",
        "tle_line2": "2 34755  73.9257 269.5833 0407887 287.1758 192.7333 13.50579623826956"
      },
      "geometry": {
        "type": "Point",
        "coordinates": [
          88.37116835521871,
          -0.8235476092732809
        ]
      }
    },
    {
      "type": "Feature",
      "properties": {
        "norad_id": 34756,
        "name": "COSMOS 2251 DEB",
        "group": "cosmos-2251-debris",
        "lat": -5.539207000680483,
        "lon": -96.43383433976274,
        "alt_km": 1168.7600519501993,
        "timestamp": "2025-12-26T08:37:54.974741+00:00",
        "meta_object_name": "COSMOS 2251 DEB",
        "meta_object_id": "1993-036AAA",
        "meta_epoch": "2025-12-24T15:18:41.454720",
        "meta_mean_motion": 13.67272702,
        "meta_eccentricity": 0.0345926,
        "meta_inclination": 74.0032,
        "meta_ra_of_asc_node": 84.8024,
        "meta_arg_of_pericenter": 318.0621,
        "meta_mean_anomaly": 39.4462,
        "meta_ephemeris_type": 0,
        "meta_classification_type": "U",
        "meta_norad_cat_id": 34756,
        "meta_element_set_no": 999,
        "meta_rev_at_epoch": 83584,
        "meta_bstar": 0.0010747811,
        "meta_mean_motion_dot": 1.342e-05,
        "meta_mean_motion_ddot": 0,
        "tle_line1": "1 34756U 93036AAA 25358.63797980  .00001342  00000+0  10748-2 0  9999",
        "tle_line2": "2 34756  74.0032  84.8024 0345926 318.0621  39.4462 13.67272702835842"
      },
      "geometry": {
        "type": "Point",
        "coordinates": [
          -96.43383433976274,
          -5.539207000680483
        ]
      }
    },
    {
      "type": "Feature",
      "properties": {
        "norad_id": 34758,
        "name": "COSMOS 2251 DEB",
        "group": "cosmos-2251-debris",
        "lat": -31.231866134799276,
        "lon": 107.52542104881147,
        "alt_km": 1330.4840044587263,
        "timestamp": "2025-12-26T08:37:54.974751+00:00",
        "meta_object_name": "COSMOS 2251 DEB",
        "meta_object_id": "1993-036AAC",
        "meta_epoch": "2025-12-25T01:33:06.423552",
        "meta_mean_motion": 13.58115883,
        "meta_eccentricity": 0.03824027,
        "meta_inclination": 74.107,
        "meta_ra_of_asc_node": 279.661,
        "meta_arg_of_pericenter": 40.5031,
        "meta_mean_anomaly": 322.3879,
        "meta_ephemeris_type": 0,
        "meta_classification_type": "U",
        "meta_norad_cat_id": 34758,
        "meta_element_set_no": 999,
        "meta_rev_at_epoch": 83077,
        "meta_bstar": 0.0017795069,
        "meta_mean_motion_dot": 2.058e-05,
        "meta_mean_motion_ddot": 0,
        "tle_line1": "1 34758U 93036AAC 25359.06465768  .00002058  00000+0  17795-2 0  9999",
        "tle_line2": "2 34758  74.1070 279.6610 0382402  40.5031 322.3879 13.58115883830773"
      },
      "geometry": {
        "type": "Point",
        "coordinates": [
          107.52542104881147,
          -31.231866134799276
        ]
      }
    },
    {
      "type": "Feature",
      "properties": {
        "norad_id": 34760,
        "name": "COSMOS 2251 DEB",
        "group": "cosmos-2251-debris",
        "lat": -50.92121562456008,
        "lon": 118.65484759798127,
        "alt_km": 836.7461174926548,
        "timestamp": "2025-12-26T08:37:54.974762+00:00",
        "meta_object_name": "COSMOS 2251 DEB",
        "meta_object_id": "1993-036AAE",
        "meta_epoch": "2025-12-25T11:47:05.253792",
        "meta_mean_motion": 14.1960114,
        "meta_eccentricity": 0.0097301,
        "meta_inclination": 74.0632,
        "meta_ra_of_asc_node": 279.6032,
        "meta_arg_of_pericenter": 328.9343,
        "meta_mean_anomaly": 148.5075,
        "meta_ephemeris_type": 0,
        "meta_classification_type": "U",
        "meta_norad_cat_id": 34760,
        "meta_element_set_no": 999,
        "meta_rev_at_epoch": 86869,
        "meta_bstar": 0.0006002,
        "meta_mean_motion_dot": 1.303e-05,
        "meta_mean_motion_ddot": 0,
        "tle_line1": "1 34760U 93036AAE 25359.49103303  .00001303  00000+0  60020-3 0  9995",
        "tle_line2": "2 34760  74.0632 279.6032 0097301 328.9343 148.5075 14.19601140868699"
      },
      "geometry": {
        "type": "Point",
        "coordinates": [
          118.65484759798127,
          -50.92121562456008
        ]
      }
    },
    {
      "type": "Feature",
      "properties": {
        "norad_id": 34761,
        "name": "COSMOS 2251 DEB",
        "group": "cosmos-2251-debris",
        "lat": -19.03139713668999,
        "lon": -27.977280764838998,
        "alt_km": 746.1033967096182,
        "timestamp": "2025-12-26T08:37:54.974772+00:00",
        "meta_object_name": "COSMOS 2251 DEB",
        "meta_object_id": "1993-036AAF",
        "meta_epoch": "2025-12-24T04:58:02.700480",
        "meta_mean_motion": 14.38089541,
        "meta_eccentricity": 0.00370278,
        "meta_inclination": 74.0286,
        "meta_ra_of_asc_node": 341.6577,
        "meta_arg_of_pericenter": 12.6034,
        "meta_mean_anomaly": 347.6036,
        "meta_ephemeris_type": 0,
        "meta_classification_type": "U",
        "meta_norad_cat_id": 34761,
        "meta_element_set_no": 999,
        "meta_rev_at_epoch": 87814,
        "meta_bstar": 0.00063419722,
        "meta_mean_motion_dot": 1.911e-05,
        "meta_mean_motion_ddot": 0,
        "tle_line1": "1 34761U 93036AAF 25358.20697570  .00001911  00000+0  63420-3 0  9990",
        "tle_line2": "2 34761  74.0286 341.6577 0037027  12.6034 347.6036 14.38089541878148"
      },
      "geometry": {
        "type": "Point",
        "coordinates": [
          -27.977280764838998,
          -19.03139713668999
        ]
      }
    },
    {
      "type": "Feature",
      "properties": {
        "norad_id": 34784,
        "name": "COSMOS 2251 DEB",
        "group": "cosmos-2251-debris",
        "lat": -61.14687664949781,
        "lon": 149.6528294498337,
        "alt_km": 724.5742240819609,
        "timestamp": "2025-12-26T08:37:54.974782+00:00",
        "meta_object_name": "COSMOS 2251 DEB",
        "meta_object_id": "1993-036AAM",
        "meta_epoch": "2025-12-25T20:00:36.837216",
        "meta_mean_motion": 14.6083756,
        "meta_eccentricity": 0.00491076,
        "meta_inclination": 74.0077,
        "meta_ra_of_asc_node": 299.2916,
        "meta_arg_of_pericenter": 104.7203,
        "meta_mean_anomaly": 255.9413,
        "meta_ephemeris_type": 0,
        "meta_classification_type": "U",
        "meta_norad_cat_id": 34784,
        "meta_element_set_no": 999,
        "meta_rev_at_epoch": 88726,
        "meta_bstar": 0.00051075753,
        "meta_mean_motion_dot": 2.509e-05,
        "meta_mean_motion_ddot": 0,
        "tle_line1": "1 34784U 93036AAM 25359.83375969  .00002509  00000+0  51076-3 0  9998",
        "tle_line2": "2 34784  74.0077 299.2916 0049107 104.7203 255.9413 14.60837560887269"
      },
      "geometry": {
        "type": "Point",
        "coordinates": [
          149.6528294498337,
          -61.14687664949781
        ]
      }
    }
  ]
}